STARLINK-5479           
1 55662U 23021AL  26068.65319216 -.00000754  00000+0 -56672-4 0  9994
2 55662  70.0006 164.3838 0003097 266.5141  93.5663 14.97521079169289
LEMUR-2-DELOITTE-1      
1 63259U 25052BB  26068.93956839  .00005004  00000+0  44206-3 0  9990
2 63259  97.7035 323.2090 0003011  78.3841 281.7719 14.96797120 53844
